[{"OBJECT_NAME":"STARLINK-32614","OBJECT_ID":"2024-249V","EPOCH":"2026-03-09T01:06:55.348416","MEAN_MOTION":15.27574673,"ECCENTRICITY":0.00017291,"INCLINATION":43.0018,"RA_OF_ASC_NODE":325.6316,"ARG_OF_PERICENTER":281.1762,"MEAN_ANOMALY":78.8895,"EPHEMERIS_TYPE":0,"CLASSIFICATION_TYPE":"U","NORAD_CAT_ID":62428,"ELEMENT_SET_NO":999,"REV_AT_EPOCH":6762,"BSTAR":0.0012099413,"MEAN_MOTION_DOT":0.00033178,"MEAN_MOTION_DDOT":0},{"OBJECT_NAME":"CZ-6A DEB","OBJECT_ID":"2024-140NC","EPOCH":"2026-03-09T01:19:44.598720","MEAN_MOTION":14.85954551,"ECCENTRICITY":0.01874643,"INCLINATION":89.0262,"RA_OF_ASC_NODE":281.6645,"ARG_OF_PERICENTER":160.2054,"MEAN_ANOMALY":200.6578,"EPHEMERIS_TYPE":0,"CLASSIFICATION_TYPE":"U","NORAD_CAT_ID":61086,"ELEMENT_SET_NO":999,"REV_AT_EPOCH":8276,"BSTAR":0.00091551765,"MEAN_MOTION_DOT":0.00011041,"MEAN_MOTION_DDOT":0}]
